IRIDIUM 7 [-]           
1 24793U 97020B   24018.55588116  .00000675  00000+0  23017-3 0  9990
2 24793  86.3945  32.8830 0002308  84.3911 275.7549 14.35043333398148
IRIDIUM 5 [-]           
1 24795U 97020D   24018.32702156  .00004509  00000+0  44406-3 0  9994
2 24795  86.3948 319.7615 0125611 176.3744 183.8423 14.85986553408653
IRIDIUM 4 [-]           
1 24796U 97020E   24018.51968764  .00000743  00000+0  24927-3 0  9997
2 24796  86.3944  30.1187 0002377  90.3142 269.8327 14.35953748398446
IRIDIUM 914 [-]         
1 24836U 97030A   24018.60490307  .00000789  00000+0  24558-3 0  9996
2 24836  86.3915  40.1949 0003957 104.6030 255.5608 14.39787065532913
IRIDIUM 16 [-]          
1 24841U 97030F   24018.56861877  .00000743  00000+0  24096-3 0  9998
2 24841  86.4006  61.8098 0001741  30.3348 329.7950 14.37673423392897
IRIDIUM 911 [-]         
1 24842U 97030G   24018.56093325  .00000926  00000+0  25280-3 0  9993
2 24842  86.4431  61.0656 0015091  24.3522 335.8390 14.46243523400522
IRIDIUM 17 [-]          
1 24870U 97034B   24018.58190127  .00000814  00000+0  26949-3 0  9997
2 24870  86.3945  91.4621 0000600 127.1018 233.0234 14.36770729389527
IRIDIUM 920 [-]         
1 24871U 97034C   24018.56261087  .00000746  00000+0  22820-3 0  9998
2 24871  86.3948  71.8883 0011020 353.2987   6.8063 14.40492254392325
